QIANFAN-81              
1 63167U 25046J   26193.75521940  .00000094  00000+0  12665-3 0  9999
2 63167  88.9723 297.8789 0013825 220.9818 139.0295 13.51023561 76112
QIANFAN-82              
1 63168U 25046K   26193.78816123  .00000098  00000+0  13340-3 0  9998
2 63168  88.9724 297.9195 0011453 226.9144 133.1050 13.51018034 76101
QIANFAN-83              
1 63169U 25046L   26193.79081500  .00000123  00000+0  14354-3 0  9998
2 63169  88.9725 297.2780 0013765 199.7300 160.3327 13.62050343 76464
QIANFAN-84              
1 63170U 25046M   26193.81723559  .00000019  00000+0  10435-4 0  9991
2 63170  88.9724 298.0492 0014617 224.7998 135.1973 13.51043571 76036
QIANFAN-85              
1 63171U 25046N   26193.81283073  .00000095  00000+0  12839-3 0  9997
2 63171  88.9723 297.9197 0011997 225.8631 134.1534 13.51015816 76101
QIANFAN-86              
1 63172U 25046P   26193.82110057  .00000068  00000+0  86335-4 0  9993
2 63172  88.9725 297.7860 0009706 228.6695 131.3621 13.51023193 76186
QIANFAN-87              
1 63173U 25046Q   26193.79234207  .00000104  00000+0  14267-3 0  9999
2 63173  88.9722 297.8928 0010419 223.8704 136.1620 13.51008808 76112
QIANFAN-88              
1 63174U 25046R   26193.80881119  .00000101  00000+0  13749-3 0  9993
2 63174  88.9724 297.8509 0010566 233.6095 126.4082 13.51016517 76148
QIANFAN-89              
1 63175U 25046S   26193.77168499  .00000091  00000+0  12281-3 0  9997
2 63175  88.9724 298.0436 0015444 225.8056 134.1827 13.51023602 76035
QIANFAN-90              
1 63176U 25046T   26193.80046985  .00000115  00000+0  15957-3 0  9997
2 63176  88.9724 298.0136 0012436 222.4898 137.5292 13.51015921 76058
QIANFAN-91              
1 66033U 25233A   26193.53668945  .00000077  00000+0  10120-3 0  9990
2 66033  88.9982  40.6255 0001993  93.3980 266.7399 13.51014896 36605
QIANFAN-92              
1 66034U 25233B   26193.54487725  .00000072  00000+0  93317-4 0  9992
2 66034  88.9965  40.5921 0001933  86.7078 273.4294 13.51013199 36608
QIANFAN-93              
1 66035U 25233C   26193.55310559  .00000061  00000+0  76396-4 0  9990
2 66035  88.9991  40.6500 0001965  92.2430 267.8946 13.51016668 36606
QIANFAN-94              
1 66036U 25233D   26193.54078819  .00000078  00000+0  10184-3 0  9990
2 66036  88.9989  40.5537 0002072  88.1556 271.9833 13.51015555 36656
QIANFAN-95              
1 66037U 25233E   26193.54903226  .00000067  00000+0  85756-4 0  9996
2 66037  88.9986  40.0958 0002132  93.3872 266.7523 13.51016535 36907
QIANFAN-96              
1 66038U 25233F   26193.64778779  .00000074  00000+0  95455-4 0  9996
2 66038  88.9983  40.6286 0002011  95.2172 264.9209 13.51015407 36611
