{"fetched_at":"2026-07-13T07:47:58.237Z","source":"https://celestrak.org/NORAD/elements/gp.php?GROUP=qianfan&FORMAT=JSON","constellation":"qianfan","records":[{"OBJECT_NAME":"QIANFAN-81","OBJECT_ID":"2025-046J","EPOCH":"2026-07-12T18:07:30.956160","CLASSIFICATION_TYPE":"U","MEAN_MOTION":13.51023561,"ECCENTRICITY":0.0013825,"INCLINATION":88.9723,"RA_OF_ASC_NODE":297.8789,"ARG_OF_PERICENTER":220.9818,"MEAN_ANOMALY":139.0295,"EPHEMERIS_TYPE":0,"NORAD_CAT_ID":63167,"ELEMENT_SET_NO":999,"REV_AT_EPOCH":7611,"BSTAR":0.00012665,"MEAN_MOTION_DOT":9.4e-7,"MEAN_MOTION_DDOT":0},{"OBJECT_NAME":"QIANFAN-82","OBJECT_ID":"2025-046K","EPOCH":"2026-07-12T18:54:57.130272","CLASSIFICATION_TYPE":"U","MEAN_MOTION":13.51018034,"ECCENTRICITY":0.0011453,"INCLINATION":88.9724,"RA_OF_ASC_NODE":297.9195,"ARG_OF_PERICENTER":226.9144,"MEAN_ANOMALY":133.105,"EPHEMERIS_TYPE":0,"NORAD_CAT_ID":63168,"ELEMENT_SET_NO":999,"REV_AT_EPOCH":7610,"BSTAR":0.0001334,"MEAN_MOTION_DOT":9.8e-7,"MEAN_MOTION_DDOT":0},{"OBJECT_NAME":"QIANFAN-83","OBJECT_ID":"2025-046L","EPOCH":"2026-07-12T18:58:46.416000","CLASSIFICATION_TYPE":"U","MEAN_MOTION":13.62050343,"ECCENTRICITY":0.0013765,"INCLINATION":88.9725,"RA_OF_ASC_NODE":297.278,"ARG_OF_PERICENTER":199.73,"MEAN_ANOMALY":160.3327,"EPHEMERIS_TYPE":0,"NORAD_CAT_ID":63169,"ELEMENT_SET_NO":999,"REV_AT_EPOCH":7646,"BSTAR":0.00014354,"MEAN_MOTION_DOT":0.00000123,"MEAN_MOTION_DDOT":0},{"OBJECT_NAME":"QIANFAN-84","OBJECT_ID":"2025-046M","EPOCH":"2026-07-12T19:36:49.154976","CLASSIFICATION_TYPE":"U","MEAN_MOTION":13.51043571,"ECCENTRICITY":0.0014617,"INCLINATION":88.9724,"RA_OF_ASC_NODE":298.0492,"ARG_OF_PERICENTER":224.7998,"MEAN_ANOMALY":135.1973,"EPHEMERIS_TYPE":0,"NORAD_CAT_ID":63170,"ELEMENT_SET_NO":999,"REV_AT_EPOCH":7603,"BSTAR":0.000010435,"MEAN_MOTION_DOT":1.9e-7,"MEAN_MOTION_DDOT":0},{"OBJECT_NAME":"QIANFAN-85","OBJECT_ID":"2025-046N","EPOCH":"2026-07-12T19:30:28.575072","CLASSIFICATION_TYPE":"U","MEAN_MOTION":13.51015816,"ECCENTRICITY":0.0011997,"INCLINATION":88.9723,"RA_OF_ASC_NODE":297.9197,"ARG_OF_PERICENTER":225.8631,"MEAN_ANOMALY":134.1534,"EPHEMERIS_TYPE":0,"NORAD_CAT_ID":63171,"ELEMENT_SET_NO":999,"REV_AT_EPOCH":7610,"BSTAR":0.00012839,"MEAN_MOTION_DOT":9.5e-7,"MEAN_MOTION_DDOT":0},{"OBJECT_NAME":"QIANFAN-86","OBJECT_ID":"2025-046P","EPOCH":"2026-07-12T19:42:23.089248","CLASSIFICATION_TYPE":"U","MEAN_MOTION":13.51023193,"ECCENTRICITY":0.0009706,"INCLINATION":88.9725,"RA_OF_ASC_NODE":297.786,"ARG_OF_PERICENTER":228.6695,"MEAN_ANOMALY":131.3621,"EPHEMERIS_TYPE":0,"NORAD_CAT_ID":63172,"ELEMENT_SET_NO":999,"REV_AT_EPOCH":7618,"BSTAR":0.000086335,"MEAN_MOTION_DOT":6.8e-7,"MEAN_MOTION_DDOT":0},{"OBJECT_NAME":"QIANFAN-87","OBJECT_ID":"2025-046Q","EPOCH":"2026-07-12T19:00:58.354848","CLASSIFICATION_TYPE":"U","MEAN_MOTION":13.51008808,"ECCENTRICITY":0.0010419,"INCLINATION":88.9722,"RA_OF_ASC_NODE":297.8928,"ARG_OF_PERICENTER":223.8704,"MEAN_ANOMALY":136.162,"EPHEMERIS_TYPE":0,"NORAD_CAT_ID":63173,"ELEMENT_SET_NO":999,"REV_AT_EPOCH":7611,"BSTAR":0.00014267,"MEAN_MOTION_DOT":0.00000104,"MEAN_MOTION_DDOT":0},{"OBJECT_NAME":"QIANFAN-88","OBJECT_ID":"2025-046R","EPOCH":"2026-07-12T19:24:41.286816","CLASSIFICATION_TYPE":"U","MEAN_MOTION":13.51016517,"ECCENTRICITY":0.0010566,"INCLINATION":88.9724,"RA_OF_ASC_NODE":297.8509,"ARG_OF_PERICENTER":233.6095,"MEAN_ANOMALY":126.4082,"EPHEMERIS_TYPE":0,"NORAD_CAT_ID":63174,"ELEMENT_SET_NO":999,"REV_AT_EPOCH":7614,"BSTAR":0.00013749,"MEAN_MOTION_DOT":0.00000101,"MEAN_MOTION_DDOT":0},{"OBJECT_NAME":"QIANFAN-89","OBJECT_ID":"2025-046S","EPOCH":"2026-07-12T18:31:13.583136","CLASSIFICATION_TYPE":"U","MEAN_MOTION":13.51023602,"ECCENTRICITY":0.0015444,"INCLINATION":88.9724,"RA_OF_ASC_NODE":298.0436,"ARG_OF_PERICENTER":225.8056,"MEAN_ANOMALY":134.1827,"EPHEMERIS_TYPE":0,"NORAD_CAT_ID":63175,"ELEMENT_SET_NO":999,"REV_AT_EPOCH":7603,"BSTAR":0.00012281,"MEAN_MOTION_DOT":9.1e-7,"MEAN_MOTION_DDOT":0},{"OBJECT_NAME":"QIANFAN-90","OBJECT_ID":"2025-046T","EPOCH":"2026-07-12T19:12:40.595040","CLASSIFICATION_TYPE":"U","MEAN_MOTION":13.51015921,"ECCENTRICITY":0.0012436,"INCLINATION":88.9724,"RA_OF_ASC_NODE":298.0136,"ARG_OF_PERICENTER":222.4898,"MEAN_ANOMALY":137.5292,"EPHEMERIS_TYPE":0,"NORAD_CAT_ID":63176,"ELEMENT_SET_NO":999,"REV_AT_EPOCH":7605,"BSTAR":0.00015957,"MEAN_MOTION_DOT":0.00000115,"MEAN_MOTION_DDOT":0},{"OBJECT_NAME":"QIANFAN-91","OBJECT_ID":"2025-233A","EPOCH":"2026-07-12T12:52:49.968480","CLASSIFICATION_TYPE":"U","MEAN_MOTION":13.51014896,"ECCENTRICITY":0.00019939,"INCLINATION":88.9982,"RA_OF_ASC_NODE":40.6255,"ARG_OF_PERICENTER":93.398,"MEAN_ANOMALY":266.7399,"EPHEMERIS_TYPE":0,"NORAD_CAT_ID":66033,"ELEMENT_SET_NO":999,"REV_AT_EPOCH":3660,"BSTAR":0.00010119648,"MEAN_MOTION_DOT":7.7e-7,"MEAN_MOTION_DDOT":0},{"OBJECT_NAME":"QIANFAN-92","OBJECT_ID":"2025-233B","EPOCH":"2026-07-12T13:04:37.394400","CLASSIFICATION_TYPE":"U","MEAN_MOTION":13.51013199,"ECCENTRICITY":0.00019331,"INCLINATION":88.9965,"RA_OF_ASC_NODE":40.5921,"ARG_OF_PERICENTER":86.7078,"MEAN_ANOMALY":273.4294,"EPHEMERIS_TYPE":0,"NORAD_CAT_ID":66034,"ELEMENT_SET_NO":999,"REV_AT_EPOCH":3660,"BSTAR":0.000093317435,"MEAN_MOTION_DOT":7.2e-7,"MEAN_MOTION_DDOT":0},{"OBJECT_NAME":"QIANFAN-93","OBJECT_ID":"2025-233C","EPOCH":"2026-07-12T13:16:28.322976","CLASSIFICATION_TYPE":"U","MEAN_MOTION":13.51016668,"ECCENTRICITY":0.0001965,"INCLINATION":88.9991,"RA_OF_ASC_NODE":40.65,"ARG_OF_PERICENTER":92.243,"MEAN_ANOMALY":267.8946,"EPHEMERIS_TYPE":0,"NORAD_CAT_ID":66035,"ELEMENT_SET_NO":999,"REV_AT_EPOCH":3660,"BSTAR":0.000076396,"MEAN_MOTION_DOT":6.1e-7,"MEAN_MOTION_DDOT":0},{"OBJECT_NAME":"QIANFAN-94","OBJECT_ID":"2025-233D","EPOCH":"2026-07-12T12:58:44.099616","CLASSIFICATION_TYPE":"U","MEAN_MOTION":13.51015555,"ECCENTRICITY":0.00020724,"INCLINATION":88.9989,"RA_OF_ASC_NODE":40.5537,"ARG_OF_PERICENTER":88.1556,"MEAN_ANOMALY":271.9833,"EPHEMERIS_TYPE":0,"NORAD_CAT_ID":66036,"ELEMENT_SET_NO":999,"REV_AT_EPOCH":3665,"BSTAR":0.00010184054,"MEAN_MOTION_DOT":7.8e-7,"MEAN_MOTION_DDOT":0},{"OBJECT_NAME":"QIANFAN-95","OBJECT_ID":"2025-233E","EPOCH":"2026-07-12T13:10:36.387264","CLASSIFICATION_TYPE":"U","MEAN_MOTION":13.51016535,"ECCENTRICITY":0.00021324,"INCLINATION":88.9986,"RA_OF_ASC_NODE":40.0958,"ARG_OF_PERICENTER":93.3872,"MEAN_ANOMALY":266.7523,"EPHEMERIS_TYPE":0,"NORAD_CAT_ID":66037,"ELEMENT_SET_NO":999,"REV_AT_EPOCH":3690,"BSTAR":0.0000857556,"MEAN_MOTION_DOT":6.7e-7,"MEAN_MOTION_DDOT":0},{"OBJECT_NAME":"QIANFAN-96","OBJECT_ID":"2025-233F","EPOCH":"2026-07-12T15:32:48.865056","CLASSIFICATION_TYPE":"U","MEAN_MOTION":13.51015407,"ECCENTRICITY":0.0002011,"INCLINATION":88.9983,"RA_OF_ASC_NODE":40.6286,"ARG_OF_PERICENTER":95.2172,"MEAN_ANOMALY":264.9209,"EPHEMERIS_TYPE":0,"NORAD_CAT_ID":66038,"ELEMENT_SET_NO":999,"REV_AT_EPOCH":3661,"BSTAR":0.000095455,"MEAN_MOTION_DOT":7.4e-7,"MEAN_MOTION_DDOT":0}]}
